{
  "type": "FeatureCollection",
  "features": [
    {
      "type": "Feature",
      "properties": {
        "norad_id": 43823,
        "name": "GEO-KOMPSAT-2A",
        "group": "weather",
        "lat": 0.004541529877895346,
        "lon": -86.33845845073597,
        "alt_km": 35786.128811598275,
        "timestamp": "2025-12-03T04:52:29.284141+00:00",
        "meta_object_name": "GEO-KOMPSAT-2A",
        "meta_object_id": "2018-100A",
        "meta_epoch": "2025-12-02T05:57:38.748960",
        "meta_mean_motion": 1.00270582,
        "meta_eccentricity": 5.7e-05,
        "meta_inclination": 0.0606,
        "meta_ra_of_asc_node": 123.2735,
        "meta_arg_of_pericenter": 70.3508,
        "meta_mean_anomaly": 95.4102,
        "meta_ephemeris_type": 0,
        "meta_classification_type": "U",
        "meta_norad_cat_id": 43823,
        "meta_element_set_no": 999,
        "meta_rev_at_epoch": 2565,
        "meta_bstar": 0,
        "meta_mean_motion_dot": -3.23e-06,
        "meta_mean_motion_ddot": 0,
        "tle_line1": "1 43823U 18100A   25336.24836515 -.00000323  00000+0  00000+0 0  9990",
        "tle_line2": "2 43823   0.0606 123.2735 0000570  70.3508  95.4102  1.00270582 25656"
      },
      "geometry": {
        "type": "Point",
        "coordinates": [
          -86.33845845073597,
          0.004541529877895346
        ]
      }
    },
    {
      "type": "Feature",
      "properties": {
        "norad_id": 44387,
        "name": "METEOR-M2 2",
        "group": "weather",
        "lat": 73.39037879221208,
        "lon": 168.48906715497242,
        "alt_km": 803.5711264791735,
        "timestamp": "2025-12-03T04:52:29.284153+00:00",
        "meta_object_name": "METEOR-M2 2",
        "meta_object_id": "2019-038A",
        "meta_epoch": "2025-12-02T19:57:28.709856",
        "meta_mean_motion": 14.24284618,
        "meta_eccentricity": 8.47e-05,
        "meta_inclination": 98.8962,
        "meta_ra_of_asc_node": 316.4397,
        "meta_arg_of_pericenter": 169.4743,
        "meta_mean_anomaly": 190.6453,
        "meta_ephemeris_type": 0,
        "meta_classification_type": "U",
        "meta_norad_cat_id": 44387,
        "meta_element_set_no": 999,
        "meta_rev_at_epoch": 33334,
        "meta_bstar": 0.00012698,
        "meta_mean_motion_dot": 2.47e-06,
        "meta_mean_motion_ddot": 0,
        "tle_line1": "1 44387U 19038A   25336.83158229  .00000247  00000+0  12698-3 0  9995",
        "tle_line2": "2 44387  98.8962 316.4397 0000847 169.4743 190.6453 14.24284618333340"
      },
      "geometry": {
        "type": "Point",
        "coordinates": [
          168.48906715497242,
          73.39037879221208
        ]
      }
    },
    {
      "type": "Feature",
      "properties": {
        "norad_id": 47719,
        "name": "ARKTIKA-M 1",
        "group": "weather",
        "lat": 52.89054764094808,
        "lon": 127.2240938964329,
        "alt_km": 30022.06458678476,
        "timestamp": "2025-12-03T04:52:29.284167+00:00",
        "meta_object_name": "ARKTIKA-M 1",
        "meta_object_id": "2021-016A",
        "meta_epoch": "2025-12-01T02:41:41.634816",
        "meta_mean_motion": 2.00613156,
        "meta_eccentricity": 0.71974708,
        "meta_inclination": 63.1756,
        "meta_ra_of_asc_node": 85.6045,
        "meta_arg_of_pericenter": 269.084,
        "meta_mean_anomaly": 15.7076,
        "meta_ephemeris_type": 0,
        "meta_classification_type": "U",
        "meta_norad_cat_id": 47719,
        "meta_element_set_no": 999,
        "meta_rev_at_epoch": 3481,
        "meta_bstar": 0,
        "meta_mean_motion_dot": -1.2e-07,
        "meta_mean_motion_ddot": 0,
        "tle_line1": "1 47719U 21016A   25335.11228744 -.00000012  00000+0  00000+0 0  9997",
        "tle_line2": "2 47719  63.1756  85.6045 7197470 269.0840  15.7076  2.00613156 34816"
      },
      "geometry": {
        "type": "Point",
        "coordinates": [
          127.2240938964329,
          52.89054764094808
        ]
      }
    },
    {
      "type": "Feature",
      "properties": {
        "norad_id": 49008,
        "name": "FENGYUN 3E",
        "group": "weather",
        "lat": -34.28888700963369,
        "lon": 151.81087252172057,
        "alt_km": 832.1331167943072,
        "timestamp": "2025-12-03T04:52:29.284181+00:00",
        "meta_object_name": "FENGYUN 3E",
        "meta_object_id": "2021-062A",
        "meta_epoch": "2025-12-02T21:06:07.010784",
        "meta_mean_motion": 14.19877899,
        "meta_eccentricity": 7.78e-05,
        "meta_inclination": 98.7476,
        "meta_ra_of_asc_node": 337.5173,
        "meta_arg_of_pericenter": 327.277,
        "meta_mean_anomaly": 32.8357,
        "meta_ephemeris_type": 0,
        "meta_classification_type": "U",
        "meta_norad_cat_id": 49008,
        "meta_element_set_no": 999,
        "meta_rev_at_epoch": 22872,
        "meta_bstar": 5.0139e-05,
        "meta_mean_motion_dot": 6.2e-07,
        "meta_mean_motion_ddot": 0,
        "tle_line1": "1 49008U 21062A   25336.87924781  .00000062  00000+0  50139-4 0  9996",
        "tle_line2": "2 49008  98.7476 337.5173 0000778 327.2770  32.8357 14.19877899228725"
      },
      "geometry": {
        "type": "Point",
        "coordinates": [
          151.81087252172057,
          -34.28888700963369
        ]
      }
    },
    {
      "type": "Feature",
      "properties": {
        "norad_id": 51850,
        "name": "GOES 18",
        "group": "weather",
        "lat": -0.006454824133769917,
        "lon": 8.39282321068319,
        "alt_km": 35786.9407302048,
        "timestamp": "2025-12-03T04:52:29.284194+00:00",
        "meta_object_name": "GOES 18",
        "meta_object_id": "2022-021A",
        "meta_epoch": "2025-12-02T16:33:27.976032",
        "meta_mean_motion": 1.00267928,
        "meta_eccentricity": 6.32e-05,
        "meta_inclination": 0.0163,
        "meta_ra_of_asc_node": 143.789,
        "meta_arg_of_pericenter": 138.5775,
        "meta_mean_anomaly": 260.791,
        "meta_ephemeris_type": 0,
        "meta_classification_type": "U",
        "meta_norad_cat_id": 51850,
        "meta_element_set_no": 999,
        "meta_rev_at_epoch": 462,
        "meta_bstar": 0,
        "meta_mean_motion_dot": 1.17e-06,
        "meta_mean_motion_ddot": 0,
        "tle_line1": "1 51850U 22021A   25336.68990713  .00000117  00000+0  00000+0 0  9995",
        "tle_line2": "2 51850   0.0163 143.7890 0000632 138.5775 260.7910  1.00267928  4622"
      },
      "geometry": {
        "type": "Point",
        "coordinates": [
          8.39282321068319,
          -0.006454824133769917
        ]
      }
    },
    {
      "type": "Feature",
      "properties": {
        "norad_id": 54234,
        "name": "NOAA 21 (JPSS-2)",
        "group": "weather",
        "lat": -52.48808353118155,
        "lon": 82.06447677333847,
        "alt_km": 835.7394591550237,
        "timestamp": "2025-12-03T04:52:29.284205+00:00",
        "meta_object_name": "NOAA 21 (JPSS-2)",
        "meta_object_id": "2022-150A",
        "meta_epoch": "2025-12-02T19:19:15.087072",
        "meta_mean_motion": 14.19519656,
        "meta_eccentricity": 0.0002545,
        "meta_inclination": 98.7447,
        "meta_ra_of_asc_node": 273.2379,
        "meta_arg_of_pericenter": 56.5226,
        "meta_mean_anomaly": 303.6193,
        "meta_ephemeris_type": 0,
        "meta_classification_type": "U",
        "meta_norad_cat_id": 54234,
        "meta_element_set_no": 999,
        "meta_rev_at_epoch": 15868,
        "meta_bstar": 8.9706e-05,
        "meta_mean_motion_dot": 1.45e-06,
        "meta_mean_motion_ddot": 0,
        "tle_line1": "1 54234U 22150A   25336.80503573  .00000145  00000+0  89706-4 0  9991",
        "tle_line2": "2 54234  98.7447 273.2379 0002545  56.5226 303.6193 14.19519656158684"
      },
      "geometry": {
        "type": "Point",
        "coordinates": [
          82.06447677333847,
          -52.48808353118155
        ]
      }
    },
    {
      "type": "Feature",
      "properties": {
        "norad_id": 54743,
        "name": "METEOSAT-12 (MTG-I1)",
        "group": "weather",
        "lat": 0.6442731311079922,
        "lon": 145.08648390842998,
        "alt_km": 35786.476836143906,
        "timestamp": "2025-12-03T04:52:29.284216+00:00",
        "meta_object_name": "METEOSAT-12 (MTG-I1)",
        "meta_object_id": "2022-170C",
        "meta_epoch": "2025-12-02T17:12:31.734144",
        "meta_mean_motion": 1.00273571,
        "meta_eccentricity": 0.0001477,
        "meta_inclination": 0.7163,
        "meta_ra_of_asc_node": 29.8845,
        "meta_arg_of_pericenter": 214.3422,
        "meta_mean_anomaly": 85.4278,
        "meta_ephemeris_type": 0,
        "meta_classification_type": "U",
        "meta_norad_cat_id": 54743,
        "meta_element_set_no": 999,
        "meta_rev_at_epoch": 1100,
        "meta_bstar": 0,
        "meta_mean_motion_dot": 1.3e-07,
        "meta_mean_motion_ddot": 0,
        "tle_line1": "1 54743U 22170C   25336.71703396  .00000013  00000+0  00000+0 0  9992",
        "tle_line2": "2 54743   0.7163  29.8845 0001477 214.3422  85.4278  1.00273571 11007"
      },
      "geometry": {
        "type": "Point",
        "coordinates": [
          145.08648390842998,
          0.6442731311079922
        ]
      }
    }
  ]
}